[{"OBJECT_NAME":"STARLINK-34633","OBJECT_ID":"2025-150Q","EPOCH":"2026-03-09T14:23:26.229696","MEAN_MOTION":14.9833498,"ECCENTRICITY":0.0003058,"INCLINATION":70.0019,"RA_OF_ASC_NODE":134.6704,"ARG_OF_PERICENTER":262.1025,"MEAN_ANOMALY":97.9787,"EPHEMERIS_TYPE":0,"CLASSIFICATION_TYPE":"U","NORAD_CAT_ID":64804,"ELEMENT_SET_NO":999,"REV_AT_EPOCH":3650,"BSTAR":0.00017584,"MEAN_MOTION_DOT":2.006e-5,"MEAN_MOTION_DDOT":0},{"OBJECT_NAME":"FENGYUN 1C DEB","OBJECT_ID":"1999-025DDB","EPOCH":"2026-03-09T10:56:14.251200","MEAN_MOTION":14.6302195,"ECCENTRICITY":0.01614875,"INCLINATION":98.5209,"RA_OF_ASC_NODE":163.6485,"ARG_OF_PERICENTER":230.9829,"MEAN_ANOMALY":127.6902,"EPHEMERIS_TYPE":0,"CLASSIFICATION_TYPE":"U","NORAD_CAT_ID":33618,"ELEMENT_SET_NO":999,"REV_AT_EPOCH":98051,"BSTAR":0.0010717723,"MEAN_MOTION_DOT":6.58e-5,"MEAN_MOTION_DDOT":0}]
